STARLINK-36766          
1 68069U 26042A   26071.58335648 -.01491604  64279-3 -40716-2 0  9999
2 68069  53.1596 180.4767 0001207  66.3707  77.6206 15.93505623  2506
STARLINK-36823          
1 68070U 26042B   26071.58335648 -.01492450  64421-3 -40487-2 0  9995
2 68070  53.1591 180.4712 0001114  73.7446  72.8774 15.93623474  2504
STARLINK-36970          
1 68071U 26042C   26071.58335648 -.01485353  64012-3 -39791-2 0  9992
2 68071  53.1597 180.4606 0001298  65.1759  86.5694 15.93859060  2514
STARLINK-36972          
1 68072U 26042D   26071.58335648 -.01488106  64154-3 -40113-2 0  9999
2 68072  53.1596 180.4665 0001154  67.7177  81.2114 15.93742790  2512
STARLINK-37074          
1 68073U 26042E   26071.58335648 -.01487903  64288-3 -39615-2 0  9997
2 68073  53.1596 180.4555 0001179  67.9959  86.3652 15.93975942  2518
STARLINK-37045          
1 68074U 26042F   26071.58335648 -.01485416  64166-3 -39302-2 0  9993
2 68074  53.1594 180.4496 0001260  66.2195  90.9073 15.94093012  2514
STARLINK-37026          
1 68075U 26042G   26071.58335648 -.01496797  65149-3 -39350-2 0  9993
2 68075  53.1595 180.4438 0001049  65.8355  94.1214 15.94216169  2513
STARLINK-37023          
1 68076U 26042H   26071.58335648 -.01491731  64821-3 -38973-2 0  9993
2 68076  53.1595 180.4383 0001124  68.3642  94.2187 15.94331832  2519
